NORAD_CAT_ID,OBJECT_NAME,OBJECT_TYPE,EPOCH,MEAN_MOTION,ECCENTRICITY,INCLINATION,RA_OF_ASC_NODE,ARG_OF_PERICENTER,MEAN_ANOMALY,BSTAR,MEAN_MOTION_DOT,MEAN_MOTION_DDOT,TLE_LINE0,TLE_LINE1,TLE_LINE2,SEMIMAJOR_AXIS,PERIOD,APOGEE,PERIGEE,DECAYED
50189.0,STARLINK-3276,PAYLOAD,2022-06-25 08:53:07,15.08833038,0.000185,53.2162,204.4078,47.8209,312.2940000000001,-3.3411e-05,-8.2e-06,0.0,0 STARLINK-3276,1 50189U 21125AK  22176.37021992 -.00000820  00000-0 -33411-4 0  9993,2 50189  53.2162 204.4078 0001850  47.8209 312.2940 15.08833038 32334,6917.901999999999,95.438,541.0459999999998,538.487,0.0
50189.0,STARLINK-3276,PAYLOAD,2022-06-25 18:25:25,15.08834877,0.0001879,53.2163,202.6234,46.8095,313.3054,-4.4013e-05,-9.88e-06,0.0,0 STARLINK-3276,1 50189U 21125AK  22176.76766024 -.00000988  00000-0 -44013-4 0  9993,2 50189  53.2163 202.6234 0001879  46.8095 313.3054 15.08834877 32398,6917.896,95.438,541.061,538.461,0.0
50189.0,STARLINK-3276,PAYLOAD,2022-06-26 07:08:32,15.0875814,0.0002455,53.2162,200.2446,60.8832,299.2405,0.00098276,0.00015352,0.0,0 STARLINK-3276,1 50189U 21125AK  22177.29759271  .00015352  00000-0  98276-3 0  9996,2 50189  53.2162 200.2446 0002455  60.8832 299.2405 15.08758140 31953,6918.130999999999,95.443,541.694,538.297,0.0
50189.0,STARLINK-3276,PAYLOAD,2022-06-26 10:19:17,15.08837321,0.000189,53.2162,199.6498,47.4821,312.6331,-1.9532e-05,-5.99e-06,0.0,0 STARLINK-3276,1 50189U 21125AK  22177.43005947 -.00000599  00000-0 -19532-4 0  9994,2 50189  53.2162 199.6498 0001890  47.4821 312.6331 15.08837321 31971,6917.889,95.438,541.061,538.446,0.0
50189.0,STARLINK-3276,PAYLOAD,2022-06-26 18:16:12,15.08832034,0.0001888,53.2163,198.1629,46.6262,313.4887,7.205800000000001e-05,8.59e-06,0.0,0 STARLINK-3276,1 50189U 21125AK  22177.76126029  .00000859  00000-0  72058-4 0  9994,2 50189  53.2163 198.1629 0001888  46.6262 313.4887 15.08832034 32544,6917.905,95.438,541.076,538.464,0.0
50189.0,STARLINK-3276,PAYLOAD,2022-06-27 08:34:41,15.08835966,0.0001907,53.2163,195.4865,47.2287,312.8865,6.78e-05,7.91e-06,0.0,0 STARLINK-3276,1 50189U 21125AK  22178.35742026  .00000791  00000-0  67800-4 0  9995,2 50189  53.2163 195.4865 0001907  47.2287 312.8865 15.08835966 32638,6917.893,95.438,541.077,538.438,0.0
50189.0,STARLINK-3276,PAYLOAD,2022-06-28 02:03:55,15.0883997,0.0001947,53.2163,192.2156,48.4363,311.6796,5.7925e-05,6.34e-06,0.0,0 STARLINK-3276,1 50189U 21125AK  22179.08605860  .00000634  00000-0  57925-4 0  9993,2 50189  53.2163 192.2156 0001947  48.4363 311.6796 15.08839970 32222,6917.88,95.438,541.092,538.399,0.0
50189.0,STARLINK-3276,PAYLOAD,2022-06-28 10:00:51,15.08841052,0.0001966,53.2162,190.7285,47.6627,312.4532,5.2954e-05,5.55e-06,0.0,0 STARLINK-3276,1 50189U 21125AK  22179.41725787  .00000555  00000-0  52954-4 0  9990,2 50189  53.2162 190.7285 0001966  47.6627 312.4532 15.08841052 32795,6917.877,95.437,541.102,538.382,0.0
50189.0,STARLINK-3276,PAYLOAD,2022-06-28 17:57:46,15.08842736,0.000198,53.2164,189.2417,48.4903,311.6259,5.316600000000001e-05,5.58e-06,0.0,0 STARLINK-3276,1 50189U 21125AK  22179.74845610  .00000558  00000-0  53166-4 0  9993,2 50189  53.2164 189.2417 0001980  48.4903 311.6259 15.08842736 32842,6917.871999999999,95.437,541.107,538.367,0.0
50189.0,STARLINK-3276,PAYLOAD,2022-06-29 09:51:37,15.08845343,0.0002048,53.2163,186.2685,48.8014,311.3155,4.8719e-05,4.87e-06,0.0,0 STARLINK-3276,1 50189U 21125AK  22180.41085255  .00000487  00000-0  48719-4 0  9999,2 50189  53.2163 186.2685 0002048  48.8014 311.3155 15.08845343 32948,6917.864000000001,95.437,541.146,538.312,0.0
50189.0,STARLINK-3276,PAYLOAD,2022-06-30 06:31:39,15.08833711,0.0002038,53.2165,182.4024,49.5048,310.6122,-7.5555e-05,-1.49e-05,0.0,0 STARLINK-3276,1 50189U 21125AK  22181.27198048 -.00001490  00000-0 -75555-4 0  9994,2 50189  53.2165 182.4024 0002038  49.5048 310.6122 15.08833711 33076,6917.9,95.438,541.174,538.355,0.0
50189.0,STARLINK-3276,PAYLOAD,2022-06-30 17:39:21,15.08833423,0.0002063,53.2166,180.321,49.8372,310.2801,-7.7934e-05,-1.528e-05,0.0,0 STARLINK-3276,1 50189U 21125AK  22181.73566173 -.00001528  00000-0 -77934-4 0  9998,2 50189  53.2166 180.3210 0002063  49.8372 310.2801 15.08833423 33140,6917.9,95.438,541.193,538.3380000000002,0.0
50189.0,STARLINK-3276,PAYLOAD,2022-07-01 09:33:12,15.08834265,0.0002102,53.2164,177.3474,48.673,311.4442,-6.8195e-05,-1.373e-05,0.0,0 STARLINK-3276,1 50189U 21125AK  22182.39806269 -.00001373  00000-0 -68195-4 0  9991,2 50189  53.2164 177.3474 0002102  48.6730 311.4442 15.08834265 33245,6917.898,95.438,541.217,538.309,0.0
50189.0,STARLINK-3276,PAYLOAD,2022-07-02 09:23:59,15.08828446,0.0002123,53.2165,172.8872,50.4625,309.6555,3.9788e-05,3.45e-06,0.0,0 STARLINK-3276,1 50189U 21125AK  22183.39166649  .00000345  00000-0  39788-4 0  9995,2 50189  53.2165 172.8872 0002123  50.4625 309.6555 15.08828446 33399,6917.916,95.438,541.249,538.312,0.0
50189.0,STARLINK-3276,PAYLOAD,2022-07-02 15:45:32,15.08830312,0.0002135,53.2165,171.6978,50.5026,309.6154,4.8239e-05,4.79e-06,0.0,0 STARLINK-3276,1 50189U 21125AK  22183.65662674  .00000479  00000-0  48239-4 0  9992,2 50189  53.2165 171.6978 0002135  50.5026 309.6154 15.08830312 32919,6917.91,95.438,541.252,538.298,0.0
50189.0,STARLINK-3276,PAYLOAD,2022-07-03 06:04:00,15.08834582,0.0002181,53.2166,169.0215,52.121,307.998,6.532699999999999e-05,7.51e-06,0.0,0 STARLINK-3276,1 50189U 21125AK  22184.25278650  .00000751  00000-0  65327-4 0  9996,2 50189  53.2166 169.0215 0002181  52.1210 307.9980 15.08834582 33528,6917.897,95.438,541.271,538.253,0.0
50189.0,STARLINK-3276,PAYLOAD,2022-07-03 21:57:52,15.08838125,0.0002224,53.2167,166.0477,52.6074,307.5121,7.1381e-05,8.48e-06,0.0,0 STARLINK-3276,1 50189U 21125AK  22184.91518574  .00000848  00000-0  71381-4 0  9995,2 50189  53.2167 166.0477 0002224  52.6074 307.5121 15.08838125 33628,6917.886,95.438,541.29,538.2130000000002,0.0
50189.0,STARLINK-3276,PAYLOAD,2022-07-04 04:19:24,15.08839761,0.000224,53.2167,164.8583,53.0351,307.0846,7.6725e-05,9.33e-06,0.0,0 STARLINK-3276,1 50189U 21125AK  22185.18014488  .00000933  00000-0  76725-4 0  9992,2 50189  53.2167 164.8583 0002240  53.0351 307.0846 15.08839761 33146,6917.880999999999,95.438,541.2959999999998,538.197,0.0
50189.0,STARLINK-3276,PAYLOAD,2022-07-04 21:48:38,15.08845974,0.0002293,53.2167,161.58700000000005,53.2294,306.8908,8.1191e-05,1.004e-05,0.0,0 STARLINK-3276,1 50189U 21125AK  22185.90877955  .00001004  00000-0  81191-4 0  9991,2 50189  53.2167 161.5870 0002293  53.2294 306.8908 15.08845974 33773,6917.861999999999,95.437,541.313,538.141,0.0
50189.0,STARLINK-3276,PAYLOAD,2022-07-05 07:20:57,15.08834675,0.0002777,53.2167,159.8048,47.7719,312.3509,0.00015212,2.133e-05,0.0,0 STARLINK-3276,1 50189U 21125AK  22186.30622438  .00002133  00000-0  15212-3 0  9994,2 50189  53.2167 159.8048 0002777  47.7719 312.3509 15.08834675 33312,6917.897,95.438,541.683,537.841,0.0
50189.0,STARLINK-3276,PAYLOAD,2022-07-06 05:36:21,15.08841463,0.0002331,53.2167,155.6395,54.0163,306.1045,-2.1189e-05,-6.26e-06,0.0,0 STARLINK-3276,1 50189U 21125AK  22187.23358390 -.00000626  00000-0 -21189-4 0  9998,2 50189  53.2167 155.6395 0002331  54.0163 306.1045 15.08841463 33972,6917.876,95.437,541.3530000000002,538.128,0.0
50189.0,STARLINK-3276,PAYLOAD,2022-07-06 15:08:40,15.08842712,0.0002296,53.2168,153.8559,56.5969,303.5242,-7.0691e-06,-4.01e-06,0.0,0 STARLINK-3276,1 50189U 21125AK  22187.63102186 -.00000401  00000-0 -70691-5 0  9996,2 50189  53.2168 153.8559 0002296  56.5969 303.5242 15.08842712 33514,6917.871999999999,95.437,541.325,538.149,0.0
50189.0,STARLINK-3276,PAYLOAD,2022-07-07 05:27:07,15.08865645,0.0002389,53.217,151.1795,54.2166,305.9048,-0.00022103,-3.807e-05,0.0,0 STARLINK-3276,1 50189U 21125AK  22188.22717232 -.00003807  00000-0 -22103-3 0  9992,2 50189  53.2170 151.1795 0002389  54.2166 305.9048 15.08865645 33607,6917.802,95.436,541.32,538.014,0.0
50189.0,STARLINK-3276,PAYLOAD,2022-07-07 19:45:36,15.08844537,0.0002351,53.2172,148.5033,57.4179,302.704,9.9181e-05,1.291e-05,0.0,0 STARLINK-3276,1 50189U 21125AK  22188.82333372  .00001291  00000-0  99181-4 0  9991,2 50189  53.2172 148.5033 0002351  57.4179 302.7040 15.08844537 33695,6917.8669999999975,95.437,541.3580000000002,538.105,0.0
50189.0,STARLINK-3276,PAYLOAD,2022-07-07 21:20:59,15.08837798,0.0002378,53.2173,148.2065,58.3068,301.8156,2.4669e-05,1.04e-06,0.0,0 STARLINK-3276,1 50189U 21125AK  22188.88958094  .00000104  00000-0  24669-4 0  9992,2 50189  53.2173 148.2065 0002378  58.3068 301.8156 15.08837798 34223,6917.887,95.438,541.3969999999998,538.107,0.0
50189.0,STARLINK-3276,PAYLOAD,2022-07-08 03:42:32,15.08837791,0.000233,53.2172,147.0163,58.6419,301.48,1.7095e-05,-1.6e-07,0.0,0 STARLINK-3276,1 50189U 21125AK  22189.15454110 -.00000016  00000-0  17095-4 0  9991,2 50189  53.2172 147.0163 0002330  58.6419 301.4800 15.08837791 33740,6917.887,95.438,541.364,538.14,0.0
50189.0,STARLINK-3276,PAYLOAD,2022-07-08 06:53:18,15.08838384,0.0002338,53.2171,146.4215,58.7559,301.3662,2.0811e-05,4.3e-07,0.0,0 STARLINK-3276,1 50189U 21125AK  22189.28702066  .00000043  00000-0  20811-4 0  9990,2 50189  53.2171 146.4215 0002338  58.7559 301.3662 15.08838384 34288,6917.885,95.438,541.368,538.133,0.0
50189.0,STARLINK-3276,PAYLOAD,2022-07-08 19:36:22,15.0884749,0.0002361,53.2173,144.0427,60.0165,300.1061,4.4328e-05,4.17e-06,0.0,0 STARLINK-3276,1 50189U 21125AK  22189.81693276  .00000417  00000-0  44328-4 0  9995,2 50189  53.2173 144.0427 0002361  60.0165 300.1061 15.08847490 34361,6917.857,95.437,541.356,538.089,0.0
50189.0,STARLINK-3276,PAYLOAD,2022-07-09 03:33:17,15.08854253,0.0002359,53.2172,142.5558,59.3752,300.7472,9.2573e-05,1.186e-05,0.0,0 STARLINK-3276,1 50189U 21125AK  22190.14812450  .00001186  00000-0  92573-4 0  9999,2 50189  53.2172 142.5558 0002359  59.3752 300.7472 15.08854253 33892,6917.837,95.437,541.3340000000002,538.07,0.0
